start=new Date('2021-09-18T00:00:00.000Z').valueOf();
sats=[{"OBJECT_TYPE":"PAYLOAD","TLE_LINE1":"1 47679U 21012BM  21261.00001157 -.00030740  00000-0 -20530-2 0  9993","NORAD_CAT_ID":"47679","DECAY_DATE":null,"MEAN_MOTION":"15.06411680","CLASSIFICATION_TYPE":"U","COUNTRY_CODE":"US","MEAN_MOTION_DOT":"-0.00030740","LAUNCH_DATE":"2021-02-16","FILE":"3118116","BSTAR":"-0.00205300000000","OBJECT_ID":"2021-012BM","APOAPSIS":"548.417","INCLINATION":"53.0530","RCS_SIZE":"LARGE","PERIOD":"95.591","MEAN_MOTION_DDOT":"0.0000000000000","EPHEMERIS_TYPE":"0","SEMIMAJOR_AXIS":"6925.313","PERIAPSIS":"545.939","MEAN_ELEMENT_THEORY":"SGP4","REV_AT_EPOCH":"361","MEAN_ANOMALY":"120.0518","ECCENTRICITY":"0.00017890","ELEMENT_SET_NO":"999","SITE":"AFETR","REF_FRAME":"TEME","TLE_LINE2":"2 47679  53.0530 205.5441 0001789  73.2739 120.0518 15.06411680  3617","CENTER_NAME":"EARTH","GP_ID":"184912680","ARG_OF_PERICENTER":"73.2739","RA_OF_ASC_NODE":"205.5441","TIME_SYSTEM":"UTC","EPOCH":"2021-09-18T00:00:00.999648","OBJECT_NAME":"STARLINK-2095"},{"MEAN_ANOMALY":"220.5354","ECCENTRICITY":"0.00010400","ELEMENT_SET_NO":"999","MEAN_ELEMENT_THEORY":"SGP4","PERIAPSIS":"546.497","REV_AT_EPOCH":"3174","SEMIMAJOR_AXIS":"6925.352","MEAN_MOTION_DDOT":"0.0000000000000","EPHEMERIS_TYPE":"0","RA_OF_ASC_NODE":"330.8976","TIME_SYSTEM":"UTC","OBJECT_NAME":"STARLINK-2068","EPOCH":"2021-09-17T22:01:42.982176","ARG_OF_PERICENTER":"139.5712","GP_ID":"184913435","CENTER_NAME":"EARTH","SITE":"AFETR","TLE_LINE2":"2 47722  53.0570 330.8976 0001040 139.5712 220.5354 15.06398775 31740","REF_FRAME":"TEME","COUNTRY_CODE":"US","MEAN_MOTION":"15.06398775","CLASSIFICATION_TYPE":"U","TLE_LINE1":"1 47722U 21017A   21260.91785859  .00000708  00000-0  66387-4 0  9995","OBJECT_TYPE":"PAYLOAD","DECAY_DATE":null,"NORAD_CAT_ID":"47722","INCLINATION":"53.0570","RCS_SIZE":"LARGE","PERIOD":"95.592","APOAPSIS":"547.938","LAUNCH_DATE":"2021-03-04","FILE":"3118116","BSTAR":"0.00006638700000","OBJECT_ID":"2021-017A","MEAN_MOTION_DOT":"0.00000708"},{"COUNTRY_CODE":"US","CLASSIFICATION_TYPE":"U","MEAN_MOTION":"15.73215840","DECAY_DATE":null,"NORAD_CAT_ID":"47723","TLE_LINE1":"1 47723U 21017B   21260.56431027  .00006254  00000-0  48921-4 0  9998","OBJECT_TYPE":"PAYLOAD","PERIOD":"91.532","RCS_SIZE":"LARGE","INCLINATION":"53.0426","APOAPSIS":"352.997","FILE":"3118116","OBJECT_ID":"2021-017B","BSTAR":"0.00004892100000","LAUNCH_DATE":"2021-03-04","MEAN_MOTION_DOT":"0.00006254","ELEMENT_SET_NO":"999","ECCENTRICITY":"0.00048780","MEAN_ANOMALY":"9.3555","REV_AT_EPOCH":"3233","MEAN_ELEMENT_THEORY":"SGP4","PERIAPSIS":"346.433","SEMIMAJOR_AXIS":"6727.850","EPHEMERIS_TYPE":"0","MEAN_MOTION_DDOT":"0.0000000000000","OBJECT_NAME":"STARLINK-2107","EPOCH":"2021-09-17T13:32:36.407328","RA_OF_ASC_NODE":"283.9960","TIME_SYSTEM":"UTC","ARG_OF_PERICENTER":"350.7372","GP_ID":"184912183","CENTER_NAME":"EARTH","TLE_LINE2":"2 47723  53.0426 283.9960 0004878 350.7372   9.3555 15.73215840 32330","REF_FRAME":"TEME","SITE":"AFETR"},{"OBJECT_TYPE":"PAYLOAD","TLE_LINE1":"1 47724U 21017C   21260.31009267 -.00004298  00000-0 -26125-4 0  9999","NORAD_CAT_ID":"47724","DECAY_DATE":null,"COUNTRY_CODE":"US","MEAN_MOTION":"15.73206813","CLASSIFICATION_TYPE":"U","LAUNCH_DATE":"2021-03-04","OBJECT_ID":"2021-017C","FILE":"3117864","BSTAR":"-0.00002612500000","MEAN_MOTION_DOT":"-0.00004298","INCLINATION":"53.0427","RCS_SIZE":"LARGE","PERIOD":"91.533","APOAPSIS":"353.559","SEMIMAJOR_AXIS":"6727.876","MEAN_MOTION_DDOT":"0.0000000000000","EPHEMERIS_TYPE":"0","MEAN_ANOMALY":"9.8712","ECCENTRICITY":"0.00056760","ELEMENT_SET_NO":"999","PERIAPSIS":"345.922","MEAN_ELEMENT_THEORY":"SGP4","REV_AT_EPOCH":"3164","CENTER_NAME":"EARTH","GP_ID":"184885803","SITE":"AFETR","REF_FRAME":"TEME","TLE_LINE2":"2 47724  53.0427 285.2586 0005676 350.2195   9.8712 15.73206813 31649","RA_OF_ASC_NODE":"285.2586","TIME_SYSTEM":"UTC","EPOCH":"2021-09-17T07:26:32.006688","OBJECT_NAME":"STARLINK-2116","ARG_OF_PERICENTER":"350.2195"},{"SITE":"AFETR","REF_FRAME":"TEME","TLE_LINE2":"2 47725  53.0571 336.0335 0001025 115.0124 245.0972 15.06386779 31615","CENTER_NAME":"EARTH","GP_ID":"184912685","ARG_OF_PERICENTER":"115.0124","RA_OF_ASC_NODE":"336.0335","TIME_SYSTEM":"UTC","EPOCH":"2021-09-17T21:17:18.868416","OBJECT_NAME":"STARLINK-2125","MEAN_MOTION_DDOT":"0.0000000000000","EPHEMERIS_TYPE":"0","SEMIMAJOR_AXIS":"6925.389","PERIAPSIS":"546.544","MEAN_ELEMENT_THEORY":"SGP4","REV_AT_EPOCH":"3161","ECCENTRICITY":"0.00010250","MEAN_ANOMALY":"245.0972","ELEMENT_SET_NO":"999","MEAN_MOTION_DOT":"0.00000840","LAUNCH_DATE":"2021-03-04","FILE":"3118116","BSTAR":"0.00007526300000","OBJECT_ID":"2021-017D","APOAPSIS":"547.964","INCLINATION":"53.0571","PERIOD":"95.593","RCS_SIZE":"LARGE","OBJECT_TYPE":"PAYLOAD","TLE_LINE1":"1 47725U 21017D   21260.88702394  .00000840  00000-0  75263-4 0  9997","NORAD_CAT_ID":"47725","DECAY_DATE":null,"MEAN_MOTION":"15.06386779","CLASSIFICATION_TYPE":"U","COUNTRY_CODE":"US"},{"RA_OF_ASC_NODE":"336.6936","TIME_SYSTEM":"UTC","OBJECT_NAME":"STARLINK-2126","EPOCH":"2021-09-17T17:44:59.451936","ARG_OF_PERICENTER":"114.7784","GP_ID":"184912936","CENTER_NAME":"EARTH","SITE":"AFETR","TLE_LINE2":"2 47726  53.0567 336.6936 0000915 114.7784 245.3300 15.06391565 31582","REF_FRAME":"TEME","ECCENTRICITY":"0.00009150","MEAN_ANOMALY":"245.3300","ELEMENT_SET_NO":"999","MEAN_ELEMENT_THEORY":"SGP4","PERIAPSIS":"546.606","REV_AT_EPOCH":"3158","SEMIMAJOR_AXIS":"6925.374","MEAN_MOTION_DDOT":"0.0000000000000","EPHEMERIS_TYPE":"0","INCLINATION":"53.0567","RCS_SIZE":"LARGE","PERIOD":"95.593","APOAPSIS":"547.873","LAUNCH_DATE":"2021-03-04","FILE":"3118116","BSTAR":"-0.00001545700000","OBJECT_ID":"2021-017E","MEAN_MOTION_DOT":"-0.00000511","COUNTRY_CODE":"US","MEAN_MOTION":"15.06391565","CLASSIFICATION_TYPE":"U","TLE_LINE1":"1 47726U 21017E   21260.73957699 -.00000511  00000-0 -15457-4 0  9998","OBJECT_TYPE":"PAYLOAD","DECAY_DATE":null,"NORAD_CAT_ID":"47726"},{"EPHEMERIS_TYPE":"0","MEAN_MOTION_DDOT":"0.0000000000000","SEMIMAJOR_AXIS":"6727.858","PERIAPSIS":"346.501","MEAN_ELEMENT_THEORY":"SGP4","REV_AT_EPOCH":"3234","MEAN_ANOMALY":"11.9433","ECCENTRICITY":"0.00047890","ELEMENT_SET_NO":"999","SITE":"AFETR","REF_FRAME":"TEME","TLE_LINE2":"2 47727  53.0431 283.9906 0004789 348.1471  11.9433 15.73213007 32340","CENTER_NAME":"EARTH","GP_ID":"184911684","ARG_OF_PERICENTER":"348.1471","RA_OF_ASC_NODE":"283.9906","TIME_SYSTEM":"UTC","EPOCH":"2021-09-17T13:32:17.038176","OBJECT_NAME":"STARLINK-2129","OBJECT_TYPE":"PAYLOAD","TLE_LINE1":"1 47727U 21017F   21260.56408609 -.00001919  00000-0 -91936-5 0  9992","NORAD_CAT_ID":"47727","DECAY_DATE":null,"MEAN_MOTION":"15.73213007","CLASSIFICATION_TYPE":"U","COUNTRY_CODE":"US","MEAN_MOTION_DOT":"-0.00001919","LAUNCH_DATE":"2021-03-04","BSTAR":"-0.00000919360000","FILE":"3118116","OBJECT_ID":"2021-017F","APOAPSIS":"352.945","INCLINATION":"53.0431","PERIOD":"91.532","RCS_SIZE":"LARGE"},{"EPHEMERIS_TYPE":"0","MEAN_MOTION_DDOT":"0.0000000000000","SEMIMAJOR_AXIS":"6925.381","MEAN_ELEMENT_THEORY":"SGP4","PERIAPSIS":"546.624","REV_AT_EPOCH":"3167","MEAN_ANOMALY":"254.1854","ECCENTRICITY":"0.00008990","ELEMENT_SET_NO":"999","SITE":"AFETR","TLE_LINE2":"2 47728  53.0574 335.9220 0000899 105.9234 254.1854 15.06389363 31678","REF_FRAME":"TEME","GP_ID":"184911934","CENTER_NAME":"EARTH","ARG_OF_PERICENTER":"105.9234","TIME_SYSTEM":"UTC","RA_OF_ASC_NODE":"335.9220","OBJECT_NAME":"STARLINK-2131","EPOCH":"2021-09-17T21:54:27.646272","TLE_LINE1":"1 47728U 21017G   21260.91281998 -.00000931  00000-0 -43626-4 0  9997","OBJECT_TYPE":"PAYLOAD","DECAY_DATE":null,"NORAD_CAT_ID":"47728","MEAN_MOTION":"15.06389363","CLASSIFICATION_TYPE":"U","COUNTRY_CODE":"US","MEAN_MOTION_DOT":"-0.00000931","LAUNCH_DATE":"2021-03-04","BSTAR":"-0.00004362600000","FILE":"3118116","OBJECT_ID":"2021-017G","APOAPSIS":"547.869","INCLINATION":"53.0574","RCS_SIZE":"LARGE","PERIOD":"95.593"},{"SEMIMAJOR_AXIS":"6796.957","MEAN_MOTION_DDOT":"0.0000000000000","EPHEMERIS_TYPE":"0","MEAN_ANOMALY":"1.6634","ECCENTRICITY":"0.00007050","ELEMENT_SET_NO":"999","PERIAPSIS":"418.343","MEAN_ELEMENT_THEORY":"SGP4","REV_AT_EPOCH":"3228","CENTER_NAME":"EARTH","GP_ID":"184913185","SITE":"AFETR","REF_FRAME":"TEME","TLE_LINE2":"2 47729  53.0424 285.3941 0000705 358.4371   1.6634 15.49283676 32280","RA_OF_ASC_NODE":"285.3941","TIME_SYSTEM":"UTC","EPOCH":"2021-09-17T12:56:30.121728","OBJECT_NAME":"STARLINK-2132","ARG_OF_PERICENTER":"358.4371","OBJECT_TYPE":"PAYLOAD","TLE_LINE1":"1 47729U 21017H   21260.53923752 -.00303856  00000-0 -56750-2 0  9999","NORAD_CAT_ID":"47729","DECAY_DATE":null,"COUNTRY_CODE":"US","MEAN_MOTION":"15.49283676","CLASSIFICATION_TYPE":"U","LAUNCH_DATE":"2021-03-04","FILE":"3118116","BSTAR":"-0.00567500000000","OBJECT_ID":"2021-017H","MEAN_MOTION_DOT":"-0.00303856","INCLINATION":"53.0424","RCS_SIZE":"LARGE","PERIOD":"92.946","APOAPSIS":"419.302"},{"APOAPSIS":"548.051","PERIOD":"95.593","RCS_SIZE":"LARGE","INCLINATION":"53.0576","MEAN_MOTION_DOT":"-0.00000869","BSTAR":"-0.00003947700000","FILE":"3118116","OBJECT_ID":"2021-017J","LAUNCH_DATE":"2021-03-04","CLASSIFICATION_TYPE":"U","MEAN_MOTION":"15.06392812","COUNTRY_CODE":"US","NORAD_CAT_ID":"47730","DECAY_DATE":null,"OBJECT_TYPE":"PAYLOAD","TLE_LINE1":"1 47730U 21017J   21260.73541606 -.00000869  00000-0 -39477-4 0  9994","ARG_OF_PERICENTER":"103.5612","EPOCH":"2021-09-17T17:38:59.947584","OBJECT_NAME":"STARLINK-2140","RA_OF_ASC_NODE":"351.7192","TIME_SYSTEM":"UTC","REF_FRAME":"TEME","TLE_LINE2":"2 47730  53.0576 351.7192 0001177 103.5612 256.5508 15.06392812 31384","SITE":"AFETR","CENTER_NAME":"EARTH","GP_ID":"184913436","REV_AT_EPOCH":"3138","PERIAPSIS":"546.420","MEAN_ELEMENT_THEORY":"SGP4","ELEMENT_SET_NO":"999","MEAN_ANOMALY":"256.5508","ECCENTRICITY":"0.00011770","EPHEMERIS_TYPE":"0","MEAN_MOTION_DDOT":"0.0000000000000","SEMIMAJOR_AXIS":"6925.371"}];
